*******************************************************************************
JPL/HORIZONS               675 Ludmilla (A908 QH)          2023-Sep-04 11:07:41
Rec #:     675 (+COV) Soln.date: 2023-Aug-24_11:49:12   # obs: 7360 (1908-2023)
 
IAU76/J2000 helio. ecliptic osc. elements (au, days, deg., period=Julian yrs):
 
  EPOCH=  2457281.5 ! 2015-Sep-16.00 (TDB)         Residual RMS= .28764
   EC= .200810020959721    QR= 2.214284634790012   TP= 2457136.2128627552
   OM= 263.2681451044443   W=  152.125833339757    IN= 9.783449482289633
   A= 2.77066116050288     MA= 31.04960754466859   ADIST= 3.327037686215748
   PER= 4.61194            N= .21371202            ANGMOM= .028050158
   DAN= 3.23279            DDN= 2.2581             L= 55.7394441
   B= 4.5566756            MOID= 1.23099005        TP= 2015-Apr-23.7128627552
 
Asteroid physical parameters (km, seconds, rotational period in hours):
   GM= n.a.                RAD= 38.                ROTPER= 7.717
   H= 8.17                 G= .150                 B-V= .847
                           ALBEDO= n.a.            STYP= S

ASTEROID comments: 
1: soln ref.= JPL#67, OCC=0
2: source=ORB
*******************************************************************************


*******************************************************************************
Ephemeris / API_USER Mon Sep  4 11:07:41 2023 Pasadena, USA      / Horizons
*******************************************************************************
Target body name: 675 Ludmilla (A908 QH)          {source: JPL#67}
Center body name: Solar System Barycenter (0)     {source: DE441}
Center-site name: BODY CENTER
*******************************************************************************
Start time      : A.D. 2023-Aug-12 00:00:00.0000 TDB
Stop  time      : A.D. 2023-Aug-13 00:00:00.0000 TDB
Step-size       : 2880 minutes
*******************************************************************************
Center geodetic : 0.0, 0.0, 0.0                   {E-lon(deg),Lat(deg),Alt(km)}
Center cylindric: 0.0, 0.0, 0.0                   {E-lon(deg),Dxy(km),Dz(km)}
Center radii    : (undefined)
Small perturbers: Yes                             {source: SB441-N16}
Output units    : KM-S
Calendar mode   : Mixed Julian/Gregorian
Output type     : GEOMETRIC cartesian states
Output format   : 2 (position and velocity)
Reference frame : Ecliptic of J2000.0
*******************************************************************************
Initial IAU76/J2000 heliocentric ecliptic osculating elements (au, days, deg.):
  EPOCH=  2457281.5 ! 2015-Sep-16.00 (TDB)         Residual RMS= .28764        
   EC= .200810020959721    QR= 2.214284634790012   TP= 2457136.2128627552      
   OM= 263.2681451044443   W=  152.125833339757    IN= 9.783449482289633       
  Equivalent ICRF heliocentric cartesian coordinates (au, au/d):
   X=-4.484876927163295E-01  Y= 2.146627164058498E+00  Z= 7.965978697235379E-01
  VX=-1.191503036646003E-02 VY=-1.420243482815487E-05 VZ=-2.210384312422982E-03
Asteroid physical parameters (km, seconds, rotational period in hours):        
   GM= n.a.                RAD= 38.                ROTPER= 7.717               
   H= 8.17                 G= .150                 B-V= .847                   
                           ALBEDO= n.a.            STYP= S                     
*******************************************************************************
JDTDB
   X     Y     Z
   VX    VY    VZ
*******************************************************************************
$$SOE
2460168.500000000 = A.D. 2023-Aug-12 00:00:00.0000 TDB 
 X = 3.043652267580566E+08 Y =-2.589077802155487E+08 Z = 5.792315794889095E+07
 VX= 8.538042350087496E+00 VY= 1.615526593560205E+01 VZ= 1.123530672953866E+00
$$EOE
*******************************************************************************
 
TIME

  Barycentric Dynamical Time ("TDB" or T_eph) output was requested. This
continuous coordinate time is equivalent to the relativistic proper time
of a clock at rest in a reference frame co-moving with the solar system
barycenter but outside the system's gravity well. It is the independent
variable in the solar system relativistic equations of motion.

  TDB runs at a uniform rate of one SI second per second and is independent
of irregularities in Earth's rotation.
 
CALENDAR SYSTEM

  Mixed calendar mode was active such that calendar dates after AD 1582-Oct-15
(if any) are in the modern Gregorian system. Dates prior to 1582-Oct-5 (if any)
are in the Julian calendar system, which is automatically extended for dates
prior to its adoption on 45-Jan-1 BC.  The Julian calendar is useful for
matching historical dates. The Gregorian calendar more accurately corresponds
to the Earth's orbital motion and seasons. A "Gregorian-only" calendar mode is
available if such physical events are the primary interest.

REFERENCE FRAME AND COORDINATES

  Ecliptic at the standard reference epoch

    Reference epoch: J2000.0
    X-Y plane: adopted Earth orbital plane at the reference epoch
               Note: IAU76 obliquity of 84381.448 arcseconds wrt ICRF X-Y plane
    X-axis   : ICRF
    Z-axis   : perpendicular to the X-Y plane in the directional (+ or -) sense
               of Earth's north pole at the reference epoch.

  Symbol meaning:

    JDTDB    Julian Day Number, Barycentric Dynamical Time
      X      X-component of position vector (km)
      Y      Y-component of position vector (km)
      Z      Z-component of position vector (km)
      VX     X-component of velocity vector (km/sec)                           
      VY     Y-component of velocity vector (km/sec)                           
      VZ     Z-component of velocity vector (km/sec)                           

ABERRATIONS AND CORRECTIONS

 Geometric state vectors have NO corrections or aberrations applied.

Computations by ...

    Solar System Dynamics Group, Horizons On-Line Ephemeris System
    4800 Oak Grove Drive, Jet Propulsion Laboratory
    Pasadena, CA  91109   USA

    General site: https://ssd.jpl.nasa.gov/
    Mailing list: https://ssd.jpl.nasa.gov/email_list.html
    System news : https://ssd.jpl.nasa.gov/horizons/news.html
    User Guide  : https://ssd.jpl.nasa.gov/horizons/manual.html
    Connect     : browser        https://ssd.jpl.nasa.gov/horizons/app.html#/x
                  API            https://ssd-api.jpl.nasa.gov/doc/horizons.html
                  command-line   telnet ssd.jpl.nasa.gov 6775
                  e-mail/batch   https://ssd.jpl.nasa.gov/ftp/ssd/hrzn_batch.txt
                  scripts        https://ssd.jpl.nasa.gov/ftp/ssd/SCRIPTS
    Author      : Jon.D.Giorgini@jpl.nasa.gov
*******************************************************************************
